APRIZESAT 2             
1 28366U 04025A   26187.69761963  .00000228  00000+0  83730-4 0  9993
2 28366  98.1033 352.5752 0105337 190.4908 169.4083 14.38044810154442
SAUDICOMSAT 1           
1 28369U 04025D   26187.81501958  .00000312  00000+0  82590-4 0  9993
2 28369  98.5772 198.4762 0031370 325.3170  34.5981 14.55489328166989
SAUDICOMSAT 2           
1 28370U 04025E   26187.51593395  .00000213  00000+0  66706-4 0  9999
2 28370  98.6639 200.3086 0055023 200.0485 159.8547 14.49991433162900
APRIZESAT 1             
1 28372U 04025G   26187.52370029  .00000264  00000+0  76815-4 0  9997
2 28372  98.6305 198.7754 0045797  96.3821 264.2591 14.51788562164712
NANOSAT-1               
1 28493U 04049B   26187.84076520  .00000950  00000+0  13225-3 0  9998
2 28493  98.2301 324.9851 0003171 213.8856 146.2153 14.80199480158356
SAUDICOMSAT 7           
1 31119U 07012C   26187.42701733  .00000554  00000+0  10796-3 0  9995
2 31119  98.3790 161.9535 0056601 135.2134 225.3659 14.66130233 25255
SAUDICOMSAT 6           
1 31121U 07012E   26187.86165170  .00000399  00000+0  86135-4 0  9993
2 31121  98.4109 155.7456 0070364 265.5327  93.7833 14.62579457 23068
SAUDICOMSAT 5           
1 31124U 07012H   26187.85059028  .00000717  00000+0  13152-3 0  9991
2 31124  98.3502 163.1287 0048617  64.4914 296.1306 14.68184616 26484
SAUDICOMSAT 3           
1 31125U 07012J   26187.77697904  .00000842  00000+0  14537-3 0  9991
2 31125  98.3155 163.6006 0038889 352.1631   7.8962 14.70740695 27705
SAUDICOMSAT 4           
1 31127U 07012L   26187.48992417  .00000437  00000+0  89976-4 0  9998
2 31127  98.3995 160.4552 0062943 196.9722 162.9375 14.64530104 24111
APRIZESAT 4             
1 35684U 09041D   26187.67722990  .00000676  00000+0  87258-4 0  9998
2 35684  98.1405 263.3858 0041916 257.9565 101.6949 14.83905921914253
APRIZESAT 3             
1 35686U 09041F   26187.69291374  .00001298  00000+0  11649-3 0  9990
2 35686  98.2083 341.8539 0061483   3.8106 356.3570 14.96292459919293
S-NET D                 
1 43186U 18014G   26187.79158642  .00003646  00000+0  18859-3 0  9994
2 43186  97.5339  92.4600 0006752 321.2340  38.8408 15.16866784461730
S-NET B                 
1 43187U 18014H   26187.80342396  .00004112  00000+0  21241-3 0  9996
2 43187  97.5346  92.4588 0007266 314.9428  45.1215 15.16837136461737
S-NET A                 
1 43188U 18014J   26187.79035547  .00003604  00000+0  18642-3 0  9998
2 43188  97.5355  92.6586 0007169 315.9615  44.1046 15.16875158461736
S-NET C                 
1 43189U 18014K   26187.80740213  .00004116  00000+0  21262-3 0  9995
2 43189  97.5371  92.7531 0008355 305.2688  54.7762 15.16828330460287
SALSAT                  
1 46495U 20068K   26187.57050323  .00006429  00000+0  22350-3 0  9998
2 46495  97.8859 191.8188 0008365 225.6933 134.3621 15.30088375318321
OOV-CUBE (TUBSAT-30)    
1 60240U 24128F   26187.41788602  .00002062  00000+0  16592-3 0  9994
2 60240  61.9939 158.5121 0042205 138.0070 222.4270 15.02848993109004
LPNTSAT-001 (IOD-1)     
1 68408U 26065A   26187.64689755  .00002440  00000+0  12083-3 0  9995
2 68408  97.3993  67.7434 0014840 299.7240  60.2517 15.18640299 15214
